{
  "type": "FeatureCollection",
  "features": [
    {
      "type": "Feature",
      "id": 87835,
      "geometry": {
        "type": "Polygon",
        "coordinates": [
          [
            [
              -73.9895658414036,
              40.741306564562
            ],
            [
              -73.9895622562797,
              40.7413073404745
            ],
            [
              -73.989524455777,
              40.7413633170771
            ],
            [
              -73.9895222273819,
              40.7413645775846
            ],
            [
              -73.9895196320423,
              40.7413653256701
            ],
            [
              -73.989516867487,
              40.7413655046195
            ],
            [
              -73.9895141456458,
              40.741365100044
            ],
            [
              -73.9895116748894,
              40.7413641425799
            ],
            [
              -73.9895096434545,
              40.7413627060858
            ],
            [
              -73.9895082076056,
              40.741360900438
            ],
            [
              -73.9895074774281,
              40.7413588634241
            ],
            [
              -73.9895174414912,
              40.7412991120724
            ],
            [
              -73.9895158658168,
              40.7412980718431
            ],
            [
              -73.9895118563107,
              40.7412946783668
            ],
            [
              -73.9895084305473,
              40.7412909364471
            ],
            [
              -73.9895028758819,
              40.7412731770373
            ],
            [
              -73.9895035017115,
              40.7412687069762
            ],
            [
              -73.989571301769,
              40.7407846175194
            ],
            [
              -73.989573280673,
              40.7407811786611
            ],
            [
              -73.9895759237269,
              40.7407780019104
            ],
            [
              -73.9895791705383,
              40.740775158402
            ],
            [
              -73.9895829476928,
              40.7407727129657
            ],
            [
              -73.9895871723062,
              40.7407707196244
            ],
            [
              -73.9895917484721,
              40.7407692233948
            ],
            [
              -73.9895965719987,
              40.7407682584866
            ],
            [
              -73.9896015351438,
              40.7407678465024
            ],
            [
              -73.9896061477565,
              40.7407679846963
            ],
            [
              -73.9896065277997,
              40.7407679964372
            ],
            [
              -73.9896114351247,
              40.7407687055791
            ],
            [
              -73.9896161481992,
              40.7407699559082
            ],
            [
              -73.9896205616566,
              40.7407717213003
            ],
            [
              -73.9896284296063,
              40.7407750809013
            ],
            [
              -73.9898562642747,
              40.7408723649848
            ],
            [
              -73.9898605757555,
              40.7408752514903
            ],
            [
              -73.9898643401921,
              40.7408785521809
            ],
            [
              -73.9898674901086,
              40.7408822076172
            ],
            [
              -73.9898699675019,
              40.7408861520571
            ],
            [
              -73.9898717297605,
              40.7408903152574
            ],
            [
              -73.9898727425616,
              40.7408946206719
            ],
            [
              -73.9898729893415,
              40.7408989917561
            ],
            [
              -73.9898724665604,
              40.7409033492651
            ],
            [
              -73.9898711813333,
              40.7409076157557
            ],
            [
              -73.9898691585348,
              40.7409117137867
            ],
            [
              -73.9898664336944,
              40.7409155686188
            ],
            [
              -73.9895855119369,
              40.7412965698109
            ],
            [
              -73.9895812527699,
              40.7412997509179
            ],
            [
              -73.9895765058818,
              40.7413025042397
            ],
            [
              -73.9895713423163,
              40.7413047865583
            ],
            [
              -73.9895658414036,
              40.741306564562
            ]
          ]
        ]
      },
      "properties": {
        "OBJECTID": 87835,
        "DOITT_ID": 507159,
        "BIN": 1016278,
        "BASE_BBL": "1008510001",
        "MAPPLUTO_BBL": "1008510001",
        "CONSTRUCTION_YEAR": 1903,
        "FEATURE_CODE": 2100,
        "GEOM_SOURCE": "Photogrammetric",
        "GROUND_ELEVATION": 42,
        "HEIGHT_ROOF": 300.29,
        "LAST_EDITED_DATE": 1503429775000,
        "LAST_STATUS_TYPE": "Constructed",
        "NAME": "Flatiron Building"
      }
    },
    {
      "type": "Feature",
      "id": 823924,
      "geometry": {
        "type": "Polygon",
        "coordinates": [
          [
            [
              -73.9860852787801,
              40.7489214980214
            ],
            [
              -73.9848233913899,
              40.7483907891799
            ],
            [
              -73.9849098322162,
              40.7482719138828
            ],
            [
              -73.9850310892956,
              40.7481051577197
            ],
            [
              -73.9851572919528,
              40.7479316005373
            ],
            [
              -73.98648794223,
              40.7484912263994
            ],
            [
              -73.986469871701,
              40.7485160782537
            ],
            [
              -73.9866829477056,
              40.7486056872532
            ],
            [
              -73.9865556000504,
              40.7487808263451
            ],
            [
              -73.9863580266901,
              40.7486977359135
            ],
            [
              -73.9863451307714,
              40.7487154698577
            ],
            [
              -73.9863296289197,
              40.7487089501545
            ],
            [
              -73.9863125638427,
              40.7487324198254
            ],
            [
              -73.9861540480341,
              40.7489504188627
            ],
            [
              -73.9860852787801,
              40.7489214980214
            ]
          ]
        ]
      },
      "properties": {
        "OBJECTID": 823924,
        "DOITT_ID": 778052,
        "BIN": 1015862,
        "BASE_BBL": "1008350041",
        "MAPPLUTO_BBL": "1008350041",
        "CONSTRUCTION_YEAR": 1931,
        "FEATURE_CODE": 2100,
        "GEOM_SOURCE": "Photogrammetric",
        "GROUND_ELEVATION": 50,
        "HEIGHT_ROOF": 1238.79032716,
        "LAST_EDITED_DATE": 1503426609000,
        "LAST_STATUS_TYPE": "Constructed",
        "NAME": "Empire State Building"
      }
    }
  ]
}
