{ "type": "FeatureCollection", "features": [{"type":"Feature","geometry":{"type":"MultiPolygon","coordinates":[[[[-73.98758592675179,40.74962263420966],[-73.98752570823473,40.74959744955529],[-73.98746550160591,40.749572255865566],[-73.98740529502086,40.74954707114933],[-73.98739246042723,40.74954170272929],[-73.98737943639556,40.74953625324146],[-73.9873450766421,40.749521877395196],[-73.98728487014817,40.74949669261585],[-73.98722466370144,40.749471498799856],[-73.98719078235045,40.749457324673884],[-73.9871644454593,40.749446304951015],[-73.98710423910195,40.749421120076995],[-73.98704403279184,40.749395926166336],[-73.98698100855857,40.74936984040464],[-73.98691797253545,40.749343745601955],[-73.98685494840093,40.74931765977111],[-73.98679191247662,40.74929156489924],[-73.9867288884426,40.74926546999415],[-73.98666586445617,40.74923938405954],[-73.98660282867993,40.74921328908388],[-73.98653980479403,40.74918719407501],[-73.9864767809557,40.74916110803667],[-73.98641374532765,40.74913501295727],[-73.98635072158804,40.749108926849736],[-73.98628769789957,40.74908283170256],[-73.98623552436409,40.749060995410716],[-73.98622584646493,40.74905694377739],[-73.98616398323561,40.7490310648225],[-73.98610213189707,40.74900517683072],[-73.98604028060474,40.74897929781066],[-73.98597842936232,40.74895340975226],[-73.98591657816611,40.7489275306656],[-73.98585472701983,40.748901642540574],[-73.98579286407889,40.74887576338578],[-73.98573101302881,40.74884987519413],[-73.98566916202479,40.748823995974234],[-73.98560731107082,40.74879810771596],[-73.98554546016487,40.74877221942439],[-73.98548360930509,40.748746340104574],[-73.98542174665451,40.74872045174484],[-73.98535989589081,40.748694572358374],[-73.98529804517719,40.74866868393355],[-73.9852361945096,40.7486428044805],[-73.9851743438921,40.748616915989054],[-73.98511249332067,40.74859103646932],[-73.98510375207715,40.74858737838367],[-73.98505064279927,40.748565147911265],[-73.98498878048318,40.74853926832342],[-73.98492693005791,40.74851337969876],[-73.98486507968076,40.74848749104076],[-73.98480322934958,40.74846161135452],[-73.98474423242001,40.74843692068108],[-73.98474137906858,40.7484357226299],[-73.9847397806842,40.74843520012458],[-73.98473821783045,40.748434641603666],[-73.98473666682983,40.74843402905393],[-73.98473516319852,40.74843338949527],[-73.98473367141831,40.74843270491286],[-73.98473222701159,40.7484319753114],[-73.98473127631377,40.74843146910091],[-73.98473080629257,40.748431218697846],[-73.98472942110622,40.74843041706375],[-73.98472808328918,40.748429588420684],[-73.98472676916408,40.748428714755434],[-73.98472550240824,40.74842781408126],[-73.98472427118094,40.748426886396594],[-73.98472309916782,40.74842591369452],[-73.98472195084042,40.7484249229854],[-73.98472086172521,40.74842389626385],[-73.98471981997925,40.74842284253341],[-73.98471950390841,40.74842250390119],[-73.98471881376182,40.74842176179254],[-73.98471786675447,40.74842065404428],[-73.9847169789551,40.74841952829376],[-73.98471612668426,40.74841837553273],[-73.9847153336215,40.748417204769495],[-73.98471459976872,40.748416006998866],[-73.98471391328319,40.74841479122439],[-73.9847132741628,40.748413566451156],[-73.98471270609116,40.74841232367726],[-73.98471218538675,40.748411062899464],[-73.98471172389011,40.74840978501993],[-73.98471132159774,40.74840850534725],[-73.98471097851314,40.74840720857278],[-73.98471069463237,40.748405911806195],[-73.98471046995958,40.74840459703732],[-73.98471030448854,40.74840329128142],[-73.98471019822547,40.748401967523215],[-73.98471015116415,40.74840065277791],[-73.98471016330873,40.748399329035465],[-73.98471018352386,40.74839895532805],[-73.98471023465508,40.748398014305884],[-73.98471036520522,40.748396699584156],[-73.98471055495918,40.748395384870314],[-73.98471080391488,40.7483940791694],[-73.98471111207232,40.74839278248139],[-73.98471147943356,40.748391485801214],[-73.98471190599447,40.748390207139096],[-73.9847123917571,40.748388937489835],[-73.98471280285327,40.748387971301234],[-73.98471292487862,40.74838768585697],[-73.98471352904056,40.74838645224367],[-73.98471418056347,40.74838522764173],[-73.98471487944526,40.7483840210562],[-73.98471564936742,40.74838283249017],[-73.98471645480568,40.7483816709441],[-73.98472049259478,40.74837611805812],[-73.9847268068947,40.74836743531438],[-73.98475061431785,40.74833467805346],[-73.98478387361793,40.74828885569152],[-73.9848171328722,40.748243033319746],[-73.98485039207867,40.74819721994308],[-73.98485102220283,40.74819635193795],[-73.98488365124149,40.748151397551446],[-73.9849169103585,40.74810557514993],[-73.98495016942977,40.7480597527385],[-73.98498342845329,40.74801393932222],[-73.98499429803309,40.74799896351906],[-73.98501668743306,40.74796811689102],[-73.98504994636707,40.747922294449864],[-73.98507869258816,40.74788259485682],[-73.9850847213552,40.74787426595484],[-73.9850853609389,40.747873428566834],[-73.9850860241999,40.74787260919201],[-73.98508672297886,40.74787180783192],[-73.98508746911848,40.74787101548301],[-73.98508823893337,40.74787025015239],[-73.98508904426623,40.74786950283645],[-73.98508988511499,40.74786878254028],[-73.98509076148174,40.74786808025885],[-73.98509166152377,40.74786740499566],[-73.98509259708376,40.747866747747175],[-73.9850935681597,40.7478661175185],[-73.98509455107025,40.747865514306504],[-73.98509556949668,40.74786493811428],[-73.9850958016012,40.74786481567546],[-73.98509661159845,40.7478643889403],[-73.98509768921818,40.74786385778104],[-73.98509877867049,40.74786336264355],[-73.9850998917981,40.747862894524296],[-73.9851010167583,40.74786246242682],[-73.98510140753233,40.747862319296885],[-73.98510216539574,40.74786204834255],[-73.9851033377065,40.74786167028152],[-73.98510452184986,40.747861328242294],[-73.98510572966852,40.747861013221296],[-73.98510693748112,40.74786072521548],[-73.98510816896693,40.74786047323293],[-73.98510940044675,40.74786024826558],[-73.98511064375919,40.747860059320004],[-73.98511189890422,40.74785990639618],[-73.98511316588385,40.747859780489065],[-73.98511442101479,40.74785969060065],[-73.98511569981903,40.74785963673555],[-73.98511696677656,40.74785960988407],[-73.98511823372604,40.74785961905283],[-73.98511950066742,40.74785966424184],[-73.98512076760282,40.74785973644601],[-73.98512203453019,40.747859844670415],[-73.98512302201817,40.74785995105768],[-73.98512328961085,40.74785997990846],[-73.98512454468343,40.74786015116675],[-73.98512577606668,40.74786035844222],[-73.9851270074419,40.74786060173793],[-73.98512822697045,40.747860872047255],[-73.98512943465228,40.74786116937027],[-73.98513063048537,40.74786150271197],[-73.98513181447183,40.74786186306732],[-73.98513297476892,40.74786225943979],[-73.98513411137867,40.747862682824454],[-73.98513523614173,40.747863133222744],[-73.985139664136,40.74786499784207],[-73.98519747671838,40.7478893279603],[-73.98525991861759,40.747915603735464],[-73.98532236056808,40.74794187047164],[-73.98538480256774,40.747968137173835],[-73.98544724461469,40.747994412847156],[-73.9855096867129,40.748020679481435],[-73.98557212885837,40.748046955086835],[-73.98563457105502,40.74807322165322],[-73.98569700146024,40.748099488184195],[-73.98575944375345,40.748125763687774],[-73.98582188609781,40.74815203015231],[-73.98588432848952,40.74817830558799],[-73.98594677093243,40.74820457198464],[-73.98600921342452,40.748230838347375],[-73.98607165596397,40.7482571136812],[-73.98613409855461,40.74828337997599],[-73.98619654119443,40.74830964623684],[-73.98625898388164,40.74833592146879],[-73.98632142662001,40.74836218766173],[-73.98638386940571,40.7483884628258],[-73.98644631224252,40.748414728950834],[-73.9865087551286,40.74844099504194],[-73.9865711862213,40.74846727010277],[-73.9865716491564,40.748467464666085],[-73.98661760879865,40.74848679757911],[-73.98663362920581,40.748493536125984],[-73.98669607223776,40.74851981112033],[-73.98675851532083,40.74854607707563],[-73.98682095845129,40.74857235200205],[-73.98685579117945,40.7485870036155],[-73.98688340163278,40.74859861788944],[-73.98691050297708,40.74861005019664],[-73.98694524101785,40.74862470357322],[-73.98700709229209,40.74865078922503],[-73.98706893177402,40.74867687484221],[-73.98713078314513,40.74870296042742],[-73.98719262272215,40.74872905498304],[-73.98725446234936,40.74875514050035],[-73.98731631386579,40.74878122598565],[-73.98735639305795,40.748798132892226],[-73.98737815358989,40.74880731143632],[-73.98743999336234,40.748833396853705],[-73.98750184502413,40.74885948223904],[-73.98756368489344,40.748885567589824],[-73.98762553665037,40.748911661913624],[-73.98768737661662,40.748937747197786],[-73.98774921663126,40.748963832448716],[-73.98781106853521,40.74898991766754],[-73.98782205483057,40.748994551933514],[-73.9878729086467,40.749016002851796],[-73.98792558466687,40.74903822477181],[-73.98792703863639,40.74903872290408],[-73.98792847365354,40.749039259756124],[-73.98792987077266,40.74903983622647],[-73.98793125604283,40.749040457720795],[-73.9879325939446,40.74904110622537],[-73.98793392000063,40.74904178174387],[-73.98793521052585,40.74904250228392],[-73.98793646552363,40.74904324983546],[-73.98793768499226,40.749044033403486],[-73.9879388689334,40.74904484398292],[-73.98794001734541,40.74904569057891],[-73.987941118389,40.7490465641851],[-73.98794219574602,40.74904746480399],[-73.98794321389377,40.74904839243187],[-73.9879442083549,40.74904934707239],[-73.98794514360841,40.74905031971687],[-73.9879460433328,40.74905132837788],[-73.98794689569037,40.749052355044036],[-73.98794771252213,40.74905339971655],[-73.98794847014624,40.74905446239303],[-73.98794918040181,40.74905555298022],[-73.98794984329095,40.74905665977159],[-73.9879504469739,40.74905777646229],[-73.98795101513097,40.749058911159395],[-73.9879515240804,40.74906006386046],[-73.98795198566471,40.74906122556162],[-73.98795238804293,40.7490623962616],[-73.98795274305442,40.74906358496678],[-73.9879530507024,40.74906477366702],[-73.98795328730348,40.749065971364885],[-73.98795348838028,40.74906717806406],[-73.98795363025268,40.749068384757074],[-73.98795371291904,40.74906960044896],[-73.98795373638261,40.74907080712959],[-73.987953712481,40.7490720228103],[-73.98795364121588,40.74907323848608],[-73.98795351074794,40.749074445150605],[-73.9879533210756,40.74907565180892],[-73.98794279717167,40.74912647527161],[-73.98793301981577,40.74917405698926],[-73.98792324244747,40.749221629700756],[-73.98791346506363,40.74926921141609],[-73.98790368766745,40.74931678412523],[-73.98789389841468,40.74936436583703],[-73.98788412114943,40.74941106505303],[-73.98788165633131,40.749421519669006],[-73.98787875340876,40.74943191120334],[-73.987875412385,40.749442221645985],[-73.98787163325967,40.74945245099683],[-73.98786742787847,40.749462573142395],[-73.98786279623998,40.749472594386205],[-73.98785773834845,40.74948249041454],[-73.98785226604488,40.74949226032811],[-73.98784639117171,40.749501895123025],[-73.9878165907212,40.74954888938483],[-73.98778728767347,40.749595208311895],[-73.98775798458483,40.74964152813164],[-73.98775723836465,40.74964282388051],[-73.98775707135745,40.749643092213546],[-73.98775644478363,40.749644102514736],[-73.98775559200097,40.74964536313248],[-73.9877546800183,40.74964659672878],[-73.98775370883398,40.749647812308666],[-73.98775269029235,40.74964899186323],[-73.98775162439001,40.74965015340268],[-73.98775049928932,40.74965127891558],[-73.98774931498862,40.74965237740697],[-73.98774809516989,40.74965344887936],[-73.98774682799385,40.7496544843265],[-73.9877455016194,40.74965548374709],[-73.98774413972859,40.74965644714364],[-73.9877427304804,40.749657374514896],[-73.98774128571591,40.74965826586206],[-73.98773980543497,40.749659121185246],[-73.98773827779668,40.749659940483106],[-73.98773671464369,40.749660714751876],[-73.987735127817,40.74966144399282],[-73.98773349363292,40.74966213720839],[-73.98773184761777,40.74966277639238],[-73.9877301542436,40.7496633885561],[-73.98772844903841,40.74966394668817],[-73.9877267083183,40.74966446069164],[-73.98772530864458,40.749664834252506],[-73.98772495576581,40.74966492786752],[-73.9877231795395,40.749665350916054],[-73.9877213796411,40.74966571993166],[-73.98771956790833,40.749666052925754],[-73.98771774434458,40.749666331888186],[-73.98771590894805,40.74966656582399],[-73.9877140617205,40.74966674572818],[-73.98771220266029,40.74966688060577],[-73.98771034360833,40.74966697045804],[-73.98770848456634,40.74966700627989],[-73.98770662553265,40.74966699707645],[-73.98770476650733,40.74966694284767],[-73.98770398737857,40.74966689773918],[-73.98770290749194,40.74966683458848],[-73.98770104848487,40.74966668130397],[-73.9876992131698,40.74966647399161],[-73.98769737786301,40.749666221653946],[-73.98769667808219,40.74966610451342],[-73.98769555440721,40.749665915287125],[-73.9876937546401,40.74966557290255],[-73.98769196672394,40.74966517648888],[-73.9876901906571,40.74966473505111],[-73.98768845012165,40.74966424859184],[-73.98768672143547,40.749663717108504],[-73.9876850164396,40.749663140602365],[-73.98768334697506,40.74966251907469],[-73.9876817012009,40.749661852524284],[-73.98768009095802,40.7496611409523],[-73.98767864409871,40.74966054916509],[-73.98758592675179,40.74962263420966]],[[-73.98680593716269,40.74860850650514],[-73.98673041812053,40.74857674778356],[-73.986728616642,40.748579224868415],[-73.98656575066623,40.7485115392529],[-73.98637132512587,40.74842983960134],[-73.98592557355119,40.748244310536386],[-73.98574321405023,40.74816278509274],[-73.98554028553512,40.748074803751365],[-73.98533587241488,40.74798826897578],[-73.98515429391732,40.74791528579877],[-73.98514747778168,40.747912850851684],[-73.98501532128974,40.748093247457575],[-73.98490564357849,40.74824296030538],[-73.98489821940423,40.74825355018567],[-73.98479725253524,40.74839755485944],[-73.98480503943487,40.74840093458619],[-73.98504109572256,40.748495904050856],[-73.98542643832303,40.748653967969545],[-73.98569619392723,40.748766755960375],[-73.9860499982655,40.748912106823724],[-73.98610677982523,40.748935193658454],[-73.98627269780935,40.749002655156055],[-73.98653570513936,40.74911854171331],[-73.98685790035309,40.749251589977604],[-73.9869075026503,40.74927212266234],[-73.98699915686936,40.74931066749962],[-73.98704811864837,40.74933125858419],[-73.98707915001053,40.749344308601195],[-73.98740393161336,40.749480892811405],[-73.98747490297635,40.74951120167852],[-73.98751574761033,40.74952791590277],[-73.98765065304707,40.749584648818136],[-73.98769494077371,40.74960327332106],[-73.98771038376356,40.74960976761821],[-73.98773493514642,40.74957600215956],[-73.98780033273601,40.74948606115875],[-73.98782821510865,40.74943164202561],[-73.98785505928416,40.74927815900444],[-73.98786872591357,40.74922052175244],[-73.98789489793685,40.749070317389254],[-73.98770464628258,40.74899030888271],[-73.98763645293394,40.748961631269644],[-73.9876296153744,40.748958725502796],[-73.9875857555523,40.748940086611015],[-73.98739002398732,40.74885757448598],[-73.98728094897515,40.74881159255572],[-73.98728279663118,40.74880904973039],[-73.98708710130755,40.748726750512915],[-73.98701978345935,40.74869844003829],[-73.98680593716269,40.74860850650514]]]]},"properties":{"shape_area":"40905.4492815","shape_leng":"4520.63845899","feat_code":"3800","status":"Unchanged","sub_code":"380000","source_id":"12380001933.0"}},{"type":"Feature","geometry":{"type":"MultiPolygon","coordinates":[[[[-73.98811321759088,40.74903155532888],[-73.98813332412186,40.748934436917985],[-73.98813733848853,40.748912717124036],[-73.98813828429982,40.74890760054566],[-73.98818372517049,40.748891954419975],[-73.98817906368788,40.74891717711801],[-73.98817316601216,40.74894909044924],[-73.98817111675785,40.74896018087206],[-73.9881690840958,40.74897118304694],[-73.98816929004097,40.74897166663986],[-73.98818158724625,40.74897571477673],[-73.98818313238905,40.74897622372124],[-73.98819013201742,40.748966769124976],[-73.98823370614087,40.74890790569888],[-73.98823669785432,40.74890386453299],[-73.9882569236234,40.748941862551824],[-73.98823186475073,40.74897571272049],[-73.98824462593915,40.74898080008207],[-73.98820309122985,40.74903710538279],[-73.98818526997675,40.74906126413475],[-73.98811321759088,40.74903155532888]]]]},"properties":{"shape_area":"1338.69306194","shape_leng":"212.684360833","feat_code":"3800","status":"Updated","sub_code":"380000","source_id":"12380002174.0"}}], "crs" : { "type": "name", "properties": { "name": "urn:ogc:def:crs:OGC:1.3:CRS84" } } }